start=new Date('2022-08-02T00:00:00.000Z').valueOf();
sats=[{"REV_AT_EPOCH":"6970","PERIAPSIS":"546.157","ECCENTRICITY":"0.00015580","NORAD_CAT_ID":"48327","EPOCH":"2022-08-01T20:01:23.876832","OBJECT_NAME":"STARLINK-2502","SITE":"AFETR","GP_ID":"209388942","MEAN_MOTION_DDOT":"0.0000000000000","ELEMENT_SET_NO":"999","SEMIMAJOR_AXIS":"6925.371","APOAPSIS":"548.315","BSTAR":"0.00009132100000","RCS_SIZE":"LARGE","FILE":"3527139","TLE_LINE1":"1 48327U 21036BD  22213.83430413  .00001079  00000-0  91321-4 0  9999","CLASSIFICATION_TYPE":"U","MEAN_ANOMALY":"294.6602","COUNTRY_CODE":"US","DECAY_DATE":null,"MEAN_MOTION":"15.06392745","LAUNCH_DATE":"2021-04-29","REF_FRAME":"TEME","TIME_SYSTEM":"UTC","PERIOD":"95.593","OBJECT_TYPE":"PAYLOAD","RA_OF_ASC_NODE":"248.7291","EPHEMERIS_TYPE":"0","MEAN_MOTION_DOT":"0.00001079","INCLINATION":"53.0550","CENTER_NAME":"EARTH","MEAN_ELEMENT_THEORY":"SGP4","OBJECT_ID":"2021-036BD","ARG_OF_PERICENTER":"65.4550","TLE_LINE2":"2 48327  53.0550 248.7291 0001558  65.4550 294.6602 15.06392745 69704"},{"ARG_OF_PERICENTER":"68.9071","TLE_LINE2":"2 48328  53.0552 248.7444 0001378  68.9071 291.2065 15.06388155 69709","MEAN_MOTION_DOT":"0.00001045","INCLINATION":"53.0552","OBJECT_ID":"2021-036BE","CENTER_NAME":"EARTH","MEAN_ELEMENT_THEORY":"SGP4","TIME_SYSTEM":"UTC","PERIOD":"95.593","OBJECT_TYPE":"PAYLOAD","RA_OF_ASC_NODE":"248.7444","EPHEMERIS_TYPE":"0","CLASSIFICATION_TYPE":"U","MEAN_ANOMALY":"291.2065","COUNTRY_CODE":"US","REF_FRAME":"TEME","LAUNCH_DATE":"2021-04-29","MEAN_MOTION":"15.06388155","DECAY_DATE":null,"RCS_SIZE":"LARGE","BSTAR":"0.00008903700000","FILE":"3527139","TLE_LINE1":"1 48328U 21036BE  22213.82968046  .00001045  00000-0  89037-4 0  9991","APOAPSIS":"548.204","SEMIMAJOR_AXIS":"6925.385","EPOCH":"2022-08-01T19:54:44.391744","OBJECT_NAME":"STARLINK-2504","SITE":"AFETR","GP_ID":"209389193","MEAN_MOTION_DDOT":"0.0000000000000","ELEMENT_SET_NO":"999","REV_AT_EPOCH":"6970","PERIAPSIS":"546.296","NORAD_CAT_ID":"48328","ECCENTRICITY":"0.00013780"},{"DECAY_DATE":null,"MEAN_MOTION":"15.06390125","REF_FRAME":"TEME","LAUNCH_DATE":"2021-04-29","MEAN_ANOMALY":"306.0929","COUNTRY_CODE":"US","CLASSIFICATION_TYPE":"U","EPHEMERIS_TYPE":"0","RA_OF_ASC_NODE":"248.7616","OBJECT_TYPE":"PAYLOAD","TIME_SYSTEM":"UTC","PERIOD":"95.593","MEAN_ELEMENT_THEORY":"SGP4","CENTER_NAME":"EARTH","OBJECT_ID":"2021-036BF","INCLINATION":"53.0534","MEAN_MOTION_DOT":"-0.00001525","TLE_LINE2":"2 48329  53.0534 248.7616 0001812  54.0228 306.0929 15.06390125 69708","ARG_OF_PERICENTER":"54.0228","ECCENTRICITY":"0.00018120","NORAD_CAT_ID":"48329","PERIAPSIS":"545.989","REV_AT_EPOCH":"6970","ELEMENT_SET_NO":"999","MEAN_MOTION_DDOT":"0.0000000000000","GP_ID":"209389934","SITE":"AFETR","OBJECT_NAME":"STARLINK-2510","EPOCH":"2022-08-01T19:50:47.015520","SEMIMAJOR_AXIS":"6925.379","APOAPSIS":"548.499","TLE_LINE1":"1 48329U 21036BF  22213.82693305 -.00001525  00000-0 -83530-4 0  9992","FILE":"3527139","BSTAR":"-0.00008353000000","RCS_SIZE":"LARGE"},{"TLE_LINE2":"2 48330  53.0541 248.7791 0001226  83.5566 276.5562 15.06389782 69704","ARG_OF_PERICENTER":"83.5566","INCLINATION":"53.0541","MEAN_MOTION_DOT":"-0.00000828","OBJECT_ID":"2021-036BG","MEAN_ELEMENT_THEORY":"SGP4","CENTER_NAME":"EARTH","OBJECT_TYPE":"PAYLOAD","RA_OF_ASC_NODE":"248.7791","PERIOD":"95.593","TIME_SYSTEM":"UTC","EPHEMERIS_TYPE":"0","MEAN_ANOMALY":"276.5562","COUNTRY_CODE":"US","CLASSIFICATION_TYPE":"U","REF_FRAME":"TEME","LAUNCH_DATE":"2021-04-29","DECAY_DATE":null,"MEAN_MOTION":"15.06389782","TLE_LINE1":"1 48330U 21036BG  22213.82324141 -.00000828  00000-0 -36711-4 0  9997","FILE":"3527139","RCS_SIZE":"LARGE","BSTAR":"-0.00003671100000","APOAPSIS":"548.094","SEMIMAJOR_AXIS":"6925.380","GP_ID":"209388192","SITE":"AFETR","OBJECT_NAME":"STARLINK-2501","EPOCH":"2022-08-01T19:45:28.057824","ELEMENT_SET_NO":"999","MEAN_MOTION_DDOT":"0.0000000000000","REV_AT_EPOCH":"6970","NORAD_CAT_ID":"48330","ECCENTRICITY":"0.00012260","PERIAPSIS":"546.396"},{"ELEMENT_SET_NO":"999","MEAN_MOTION_DDOT":"0.0000000000000","OBJECT_NAME":"STARLINK-2514","EPOCH":"2022-08-01T19:40:09.842304","SITE":"AFETR","GP_ID":"209388443","PERIAPSIS":"546.316","ECCENTRICITY":"0.00013250","NORAD_CAT_ID":"48331","REV_AT_EPOCH":"6970","BSTAR":"-0.00003265300000","RCS_SIZE":"LARGE","TLE_LINE1":"1 48331U 21036BH  22213.81955836 -.00000768  00000-0 -32653-4 0  9992","FILE":"3527139","SEMIMAJOR_AXIS":"6925.369","APOAPSIS":"548.152","EPHEMERIS_TYPE":"0","PERIOD":"95.593","TIME_SYSTEM":"UTC","RA_OF_ASC_NODE":"248.7969","OBJECT_TYPE":"PAYLOAD","DECAY_DATE":null,"MEAN_MOTION":"15.06393336","REF_FRAME":"TEME","LAUNCH_DATE":"2021-04-29","CLASSIFICATION_TYPE":"U","MEAN_ANOMALY":"292.8798","COUNTRY_CODE":"US","ARG_OF_PERICENTER":"67.2331","TLE_LINE2":"2 48331  53.0536 248.7969 0001325  67.2331 292.8798 15.06393336 69707","CENTER_NAME":"EARTH","MEAN_ELEMENT_THEORY":"SGP4","OBJECT_ID":"2021-036BH","MEAN_MOTION_DOT":"-0.00000768","INCLINATION":"53.0536"},{"TLE_LINE1":"1 48332U 21036BJ  22213.81860157  .00000953  00000-0  82874-4 0  9998","FILE":"3527139","BSTAR":"0.00008287400000","RCS_SIZE":"LARGE","SEMIMAJOR_AXIS":"6925.341","APOAPSIS":"548.213","ELEMENT_SET_NO":"999","MEAN_MOTION_DDOT":"0.0000000000000","GP_ID":"209389693","SITE":"AFETR","EPOCH":"2022-08-01T19:38:47.175648","OBJECT_NAME":"STARLINK-2511","ECCENTRICITY":"0.00014540","NORAD_CAT_ID":"48332","PERIAPSIS":"546.199","REV_AT_EPOCH":"6970","TLE_LINE2":"2 48332  53.0532 248.7850 0001454  58.4440 301.6691 15.06402381 69701","ARG_OF_PERICENTER":"58.4440","CENTER_NAME":"EARTH","MEAN_ELEMENT_THEORY":"SGP4","OBJECT_ID":"2021-036BJ","INCLINATION":"53.0532","MEAN_MOTION_DOT":"0.00000953","EPHEMERIS_TYPE":"0","RA_OF_ASC_NODE":"248.7850","OBJECT_TYPE":"PAYLOAD","PERIOD":"95.592","TIME_SYSTEM":"UTC","DECAY_DATE":null,"MEAN_MOTION":"15.06402381","REF_FRAME":"TEME","LAUNCH_DATE":"2021-04-29","MEAN_ANOMALY":"301.6691","COUNTRY_CODE":"US","CLASSIFICATION_TYPE":"U"},{"APOAPSIS":"548.337","SEMIMAJOR_AXIS":"6925.387","RCS_SIZE":"LARGE","BSTAR":"0.00008386000000","TLE_LINE1":"1 48333U 21036BK  22213.81219570  .00000967  00000-0  83860-4 0  9997","FILE":"3527139","PERIAPSIS":"546.168","NORAD_CAT_ID":"48333","ECCENTRICITY":"0.00015660","REV_AT_EPOCH":"6970","MEAN_MOTION_DDOT":"0.0000000000000","ELEMENT_SET_NO":"999","EPOCH":"2022-08-01T19:29:33.708480","OBJECT_NAME":"STARLINK-2518","SITE":"AFETR","GP_ID":"209389435","OBJECT_ID":"2021-036BK","CENTER_NAME":"EARTH","MEAN_ELEMENT_THEORY":"SGP4","MEAN_MOTION_DOT":"0.00000967","INCLINATION":"53.0536","ARG_OF_PERICENTER":"72.3286","TLE_LINE2":"2 48333  53.0536 248.8114 0001566  72.3286 287.7874 15.06387323 69702","REF_FRAME":"TEME","LAUNCH_DATE":"2021-04-29","DECAY_DATE":null,"MEAN_MOTION":"15.06387323","CLASSIFICATION_TYPE":"U","MEAN_ANOMALY":"287.7874","COUNTRY_CODE":"US","EPHEMERIS_TYPE":"0","PERIOD":"95.593","TIME_SYSTEM":"UTC","RA_OF_ASC_NODE":"248.8114","OBJECT_TYPE":"PAYLOAD"},{"EPOCH":"2022-08-01T19:24:14.184000","OBJECT_NAME":"STARLINK-2470","SITE":"AFETR","GP_ID":"209388692","MEAN_MOTION_DDOT":"0.0000000000000","ELEMENT_SET_NO":"999","REV_AT_EPOCH":"6970","PERIAPSIS":"546.281","NORAD_CAT_ID":"48334","ECCENTRICITY":"0.00013450","RCS_SIZE":"LARGE","BSTAR":"0.00007166900000","FILE":"3527139","TLE_LINE1":"1 48334U 21036BL  22213.80849750  .00000786  00000-0  71669-4 0  9999","APOAPSIS":"548.144","SEMIMAJOR_AXIS":"6925.348","TIME_SYSTEM":"UTC","PERIOD":"95.592","OBJECT_TYPE":"PAYLOAD","RA_OF_ASC_NODE":"248.8307","EPHEMERIS_TYPE":"0","CLASSIFICATION_TYPE":"U","MEAN_ANOMALY":"281.6817","COUNTRY_CODE":"US","REF_FRAME":"TEME","LAUNCH_DATE":"2021-04-29","MEAN_MOTION":"15.06400206","DECAY_DATE":null,"ARG_OF_PERICENTER":"78.4323","TLE_LINE2":"2 48334  53.0537 248.8307 0001345  78.4323 281.6817 15.06400206 69708","MEAN_MOTION_DOT":"0.00000786","INCLINATION":"53.0537","OBJECT_ID":"2021-036BL","CENTER_NAME":"EARTH","MEAN_ELEMENT_THEORY":"SGP4"},{"MEAN_ELEMENT_THEORY":"SGP4","CENTER_NAME":"EARTH","OBJECT_ID":"2021-036BM","INCLINATION":"53.0520","MEAN_MOTION_DOT":"-0.00000720","TLE_LINE2":"2 48335  53.0520 248.8688 0001421  79.6273 280.4876 15.06404896 69706","ARG_OF_PERICENTER":"79.6273","DECAY_DATE":null,"MEAN_MOTION":"15.06404896","REF_FRAME":"TEME","LAUNCH_DATE":"2021-04-29","MEAN_ANOMALY":"280.4876","COUNTRY_CODE":"US","CLASSIFICATION_TYPE":"U","EPHEMERIS_TYPE":"0","OBJECT_TYPE":"PAYLOAD","RA_OF_ASC_NODE":"248.8688","TIME_SYSTEM":"UTC","PERIOD":"95.592","SEMIMAJOR_AXIS":"6925.334","APOAPSIS":"548.183","FILE":"3527139","TLE_LINE1":"1 48335U 21036BM  22213.80481077 -.00000720  00000-0 -29413-4 0  9994","BSTAR":"-0.00002941300000","RCS_SIZE":"LARGE","ECCENTRICITY":"0.00014210","NORAD_CAT_ID":"48335","PERIAPSIS":"546.214","REV_AT_EPOCH":"6970","ELEMENT_SET_NO":"999","MEAN_MOTION_DDOT":"0.0000000000000","SITE":"AFETR","GP_ID":"209388943","EPOCH":"2022-08-01T19:18:55.650528","OBJECT_NAME":"STARLINK-2441"},{"ARG_OF_PERICENTER":"65.7372","TLE_LINE2":"2 48353  53.0539 148.5428 0002042  65.7372 294.3830 15.06399130 68707","OBJECT_ID":"2021-038A","MEAN_ELEMENT_THEORY":"SGP4","CENTER_NAME":"EARTH","MEAN_MOTION_DOT":"0.00001365","INCLINATION":"53.0539","EPHEMERIS_TYPE":"0","TIME_SYSTEM":"UTC","PERIOD":"95.592","OBJECT_TYPE":"PAYLOAD","RA_OF_ASC_NODE":"148.5428","REF_FRAME":"TEME","LAUNCH_DATE":"2021-05-04","MEAN_MOTION":"15.06399130","DECAY_DATE":null,"CLASSIFICATION_TYPE":"U","COUNTRY_CODE":"US","MEAN_ANOMALY":"294.3830","RCS_SIZE":"LARGE","BSTAR":"0.00011052000000","FILE":"3527139","TLE_LINE1":"1 48353U 21038A   22213.87668174  .00001365  00000-0  11052-3 0  9991","APOAPSIS":"548.630","SEMIMAJOR_AXIS":"6925.351","ELEMENT_SET_NO":"999","MEAN_MOTION_DDOT":"0.0000000000000","OBJECT_NAME":"STARLINK-2613","EPOCH":"2022-08-01T21:02:25.302336","GP_ID":"209389695","SITE":"AFETR","PERIAPSIS":"545.802","NORAD_CAT_ID":"48353","ECCENTRICITY":"0.00020420","REV_AT_EPOCH":"6870"}];
